FENGYUN 3D              
1 43010U 17072A   26197.88765870 -.00000300  00000+0 -12004-3 0  9993
2 43010  99.0145 172.8495 0001440  11.0136 349.1070 14.19744012449201
NOAA 20 (JPSS-1)        
1 43013U 17073A   26197.81701927  .00000014  00000+0  27457-4 0  9992
2 43013  98.7772 137.0172 0001448 122.8399 237.2916 14.19516648448679
GOES 17                 
1 43226U 18022A   26197.82249248 -.00000193  00000+0  00000+0 0  9996
2 43226   1.0113  85.2320 0000571  74.7447 341.2705  1.00270914 30729
SENTINEL-3B             
1 43437U 18039A   26197.78450514  .00000048  00000+0  37772-4 0  9992
2 43437  98.6236 264.8900 0001186 119.7266 240.4033 14.26736639428348
FENGYUN 2H              
1 43491U 18050A   26197.85585836 -.00000138  00000+0  00000+0 0  9999
2 43491   3.1055  78.7204 0002294 133.9095 109.2651  1.00266973 29731
METOP-C                 
1 43689U 18087A   26196.57486992  .00000053  00000+0  44045-4 0  9996
2 43689  98.6630 255.6574 0002216  93.2289 266.9142 14.21519167398863
GEO-KOMPSAT-2A          
1 43823U 18100A   26197.50912757 -.00000355  00000+0  00000+0 0  9993
2 43823   0.0333 170.8393 0001960 292.0796 142.9462  1.00268212 27923
METEOR-M2 2             
1 44387U 19038A   26197.88847145 -.00000123  00000+0 -33491-4 0  9998
2 44387  98.9157 185.6147 0000620 359.7542   0.3635 14.24372472365526
ARKTIKA-M 1             
1 47719U 21016A   26195.40739072 -.00000301  00000+0  00000+0 0  9996
2 47719  63.2662  53.6722 7297332 270.0591  14.4994  2.00611590 39330
FENGYUN 3E              
1 49008U 21062A   26197.86824904 -.00000373  00000+0 -15485-3 0  9998
2 49008  98.7495 200.9461 0002190  36.3013 323.8312 14.19904970260795
GOES 18                 
1 51850U 22021A   26197.74179845  .00000086  00000+0  00000+0 0  9998
2 51850   0.0156 108.3476 0000426  69.4530 246.8070  1.00271461  6882
NOAA 21 (JPSS-2)        
1 54234U 22150A   26197.84929064  .00000012  00000+0  26210-4 0  9992
2 54234  98.7059 136.1404 0002855 101.7601 258.3895 14.19541206190758
METEOSAT-12 (MTG-I1)    
1 54743U 22170C   26197.82892022 -.00000019  00000+0  00000+0 0  9992
2 54743   0.7269  20.0291 0003874  81.6520 131.0421  1.00268167 13273
TIANMU-1 03             
1 55973U 23039A   26197.85579008  .00008896  00000+0  17164-3 0  9995
2 55973  97.5242  13.0062 0002432  22.1306 338.0048 15.48072777185421
TIANMU-1 04             
1 55974U 23039B   26197.83354362  .00009505  00000+0  17930-3 0  9997
2 55974  97.5182  12.1391 0002866   6.5562 353.5725 15.48700672185438
TIANMU-1 05             
1 55975U 23039C   26197.83801098  .00009026  00000+0  17456-3 0  9992
2 55975  97.5227  12.5914 0002822  41.4431 318.7033 15.47998185185408
TIANMU-1 06             
1 55976U 23039D   26197.83883691  .00009364  00000+0  17730-3 0  9992
2 55976  97.5234  13.2581 0002906  32.1851 327.9576 15.48597305185438
FENGYUN 3G              
1 56232U 23055A   26197.82757273  .00014266  00000+0  22415-3 0  9994
2 56232  49.9908 193.1478 0006997  63.6041 296.5644 15.53836854184617
METEOR-M2 3             
1 57166U 23091A   26197.88965686 -.00000021  00000+0  97888-5 0  9999
2 57166  98.6067 252.2577 0005142  86.4652 273.7115 14.24048987158744
TIANMU-1 07             
1 57399U 23101A   26197.85840493  .00003316  00000+0  11629-3 0  9990
2 57399  97.2573 247.8489 0003642  61.3769 298.7837 15.30126798166185
TIANMU-1 08             
1 57400U 23101B   26197.82496785  .00003366  00000+0  11800-3 0  9997
2 57400  97.2562 247.5825 0004465  42.2727 317.8858 15.30130380166170
TIANMU-1 09             
1 57401U 23101C   26197.87308066  .00003399  00000+0  11895-3 0  9997
2 57401  97.2520 247.0302 0004246  61.1674 298.9992 15.30171944166188
TIANMU-1 10             
1 57402U 23101D   26197.84125558  .00003411  00000+0  11944-3 0  9998
2 57402  97.2600 248.0800 0005524  49.8410 310.3314 15.30145392166177
FENGYUN 3F              
1 57490U 23111A   26197.85144966  .00000013  00000+0  26567-4 0  9994
2 57490  98.6824 267.3056 0001242  76.0125 284.1189 14.19943575153070
ARKTIKA-M 2             
1 58584U 23198A   26196.17500106  .00000129  00000+0  00000+0 0  9997
2 58584  63.2178 151.2342 6910736 267.3397  18.7345  2.00608092 18886
TIANMU-1 11             
1 58645U 23205A   26197.86687668  .00002716  00000+0  10434-3 0  9990
2 58645  97.3440 218.9627 0006834 254.6153 105.4331 15.27273221142050
TIANMU-1 12             
1 58646U 23205B   26197.83946105  .00002945  00000+0  11350-3 0  9994
2 58646  97.3429 218.6819 0005935 227.1872 132.8868 15.27105301142032
TIANMU-1 13             
1 58647U 23205C   26197.87291067  .00002914  00000+0  11238-3 0  9990
2 58647  97.3457 218.9954 0005968 205.5602 154.5343 15.27098242142038
TIANMU-1 14             
1 58648U 23205D   26197.85725601  .00002893  00000+0  11141-3 0  9994
2 58648  97.3394 218.1386 0006583 213.2352 146.8474 15.27141940142035
TIANMU-1 19             
1 58660U 23208A   26197.81388639  .00004516  00000+0  14876-3 0  9995
2 58660  97.4531 314.2773 0004757 192.2950 167.8176 15.31990731141869
TIANMU-1 20             
1 58661U 23208B   26197.82870669  .00004490  00000+0  14250-3 0  9993
2 58661  97.4474 314.9584 0006494 205.6916 154.4004 15.33179801141966
