OBJECT_NAME,OBJECT_ID,EPOCH,MEAN_MOTION,ECCENTRICITY,INCLINATION,RA_OF_ASC_NODE,ARG_OF_PERICENTER,MEAN_ANOMALY,EPHEMERIS_TYPE,CLASSIFICATION_TYPE,NORAD_CAT_ID,ELEMENT_SET_NO,REV_AT_EPOCH,BSTAR,MEAN_MOTION_DOT,MEAN_MOTION_DDOT
FENGYUN 3D,2017-072A,2026-07-16T21:18:13.711680,14.19744012,.000144,99.0145,172.8495,11.0136,349.1070,0,U,43010,999,44920,-.12004E-3,-.3E-5,0
NOAA 20 (JPSS-1),2017-073A,2026-07-16T19:36:30.464928,14.19516648,.0001448,98.7772,137.0172,122.8399,237.2916,0,U,43013,999,44867,.27457E-4,.14E-6,0
GOES 17,2018-022A,2026-07-16T19:44:23.350272,1.00270914,.0000571,1.0113,85.2320,74.7447,341.2705,0,U,43226,999,3072,0,-.193E-5,0
SENTINEL-3B,2018-039A,2026-07-16T18:49:41.244096,14.26736639,.0001186,98.6236,264.8900,119.7266,240.4033,0,U,43437,999,42834,.37772E-4,.48E-6,0
FENGYUN 2H,2018-050A,2026-07-16T20:32:26.162304,1.00266973,.0002294,3.1055,78.7204,133.9095,109.2651,0,U,43491,999,2973,0,-.138E-5,0
METOP-C,2018-087A,2026-07-15T13:47:48.761088,14.21519167,.0002216,98.6630,255.6574,93.2289,266.9142,0,U,43689,999,39886,.44045E-4,.53E-6,0
GEO-KOMPSAT-2A,2018-100A,2026-07-16T12:13:08.622048,1.00268212,.000196,0.0333,170.8393,292.0796,142.9462,0,U,43823,999,2792,0,-.355E-5,0
METEOR-M2 2,2019-038A,2026-07-16T21:19:23.933280,14.24372472,.000062,98.9157,185.6147,359.7542,0.3635,0,U,44387,999,36552,-.33491E-4,-.123E-5,0
ARKTIKA-M 1,2021-016A,2026-07-14T09:46:38.558208,2.00611590,.7297332,63.2662,53.6722,270.0591,14.4994,0,U,47719,999,3933,0,-.301E-5,0
FENGYUN 3E,2021-062A,2026-07-16T20:50:16.717056,14.19904970,.000219,98.7495,200.9461,36.3013,323.8312,0,U,49008,999,26079,-.15485E-3,-.373E-5,0
GOES 18,2022-021A,2026-07-16T17:48:11.386080,1.00271461,.0000426,0.0156,108.3476,69.4530,246.8070,0,U,51850,999,688,0,.86E-6,0
NOAA 21 (JPSS-2),2022-150A,2026-07-16T20:22:58.711296,14.19541206,.0002855,98.7059,136.1404,101.7601,258.3895,0,U,54234,999,19075,.2621E-4,.12E-6,0
METEOSAT-12 (MTG-I1),2022-170C,2026-07-16T19:53:38.707008,1.00268167,.0003874,0.7269,20.0291,81.6520,131.0421,0,U,54743,999,1327,0,-.19E-6,0
TIANMU-1 03,2023-039A,2026-07-16T20:32:20.262912,15.48072777,.0002432,97.5242,13.0062,22.1306,338.0048,0,U,55973,999,18542,.17164E-3,.8896E-4,0
TIANMU-1 04,2023-039B,2026-07-16T20:00:18.168768,15.48700672,.0002866,97.5182,12.1391,6.5562,353.5725,0,U,55974,999,18543,.1793E-3,.9505E-4,0
TIANMU-1 05,2023-039C,2026-07-16T20:06:44.148672,15.47998185,.0002822,97.5227,12.5914,41.4431,318.7033,0,U,55975,999,18540,.17456E-3,.9026E-4,0
TIANMU-1 06,2023-039D,2026-07-16T20:07:55.509024,15.48597305,.0002906,97.5234,13.2581,32.1851,327.9576,0,U,55976,999,18543,.1773E-3,.9364E-4,0
FENGYUN 3G,2023-055A,2026-07-16T19:51:42.283872,15.53836854,.0006997,49.9908,193.1478,63.6041,296.5644,0,U,56232,999,18461,.22415E-3,.14266E-3,0
METEOR-M2 3,2023-091A,2026-07-16T21:21:06.352704,14.24048987,.0005142,98.6067,252.2577,86.4652,273.7115,0,U,57166,999,15874,.97888E-5,-.21E-6,0
TIANMU-1 07,2023-101A,2026-07-16T20:36:06.185952,15.30126798,.0003642,97.2573,247.8489,61.3769,298.7837,0,U,57399,999,16618,.11629E-3,.3316E-4,0
TIANMU-1 08,2023-101B,2026-07-16T19:47:57.222240,15.30130380,.0004465,97.2562,247.5825,42.2727,317.8858,0,U,57400,999,16617,.118E-3,.3366E-4,0
TIANMU-1 09,2023-101C,2026-07-16T20:57:14.169024,15.30171944,.0004246,97.2520,247.0302,61.1674,298.9992,0,U,57401,999,16618,.11895E-3,.3399E-4,0
TIANMU-1 10,2023-101D,2026-07-16T20:11:24.482112,15.30145392,.0005524,97.2600,248.0800,49.8410,310.3314,0,U,57402,999,16617,.11944E-3,.3411E-4,0
FENGYUN 3F,2023-111A,2026-07-16T20:26:05.250624,14.19943575,.0001242,98.6824,267.3056,76.0125,284.1189,0,U,57490,999,15307,.26567E-4,.13E-6,0
ARKTIKA-M 2,2023-198A,2026-07-15T04:12:00.091584,2.00608092,.69107365,63.2178,151.2342,267.3397,18.7345,0,U,58584,999,1888,0,.129E-5,0
TIANMU-1 11,2023-205A,2026-07-16T20:48:18.145152,15.27273221,.0006834,97.3440,218.9627,254.6153,105.4331,0,U,58645,999,14205,.10434E-3,.2716E-4,0
TIANMU-1 12,2023-205B,2026-07-16T20:08:49.434720,15.27105301,.0005935,97.3429,218.6819,227.1872,132.8868,0,U,58646,999,14203,.1135E-3,.2945E-4,0
TIANMU-1 13,2023-205C,2026-07-16T20:56:59.481888,15.27098242,.0005968,97.3457,218.9954,205.5602,154.5343,0,U,58647,999,14203,.11238E-3,.2914E-4,0
TIANMU-1 14,2023-205D,2026-07-16T20:34:26.919264,15.27141940,.0006583,97.3394,218.1386,213.2352,146.8474,0,U,58648,999,14203,.11141E-3,.2893E-4,0
TIANMU-1 19,2023-208A,2026-07-16T19:31:59.784096,15.31990731,.0004757,97.4531,314.2773,192.2950,167.8176,0,U,58660,999,14186,.14876E-3,.4516E-4,0
TIANMU-1 20,2023-208B,2026-07-16T19:53:20.258016,15.33179801,.0006494,97.4474,314.9584,205.6916,154.4004,0,U,58661,999,14196,.1425E-3,.449E-4,0
